{
 "type": "FeatureCollection",
 "name": "ZHIDAO Hainan campus",
 "crs_note": "All coordinates are WGS-84 (EPSG:4326), which is what the OSM source publishes and what device GPS returns. They are NOT GCJ-02 and must never be drawn on an AMap or Baidu tile layer without conversion.",
 "attribution": "Geometry (c) OpenStreetMap contributors, ODbL 1.0",
 "verified_note": "verified=false everywhere: nothing here has been checked against the ground or a second source yet. Do not present this as survey-accurate.",
 "missing": [
  {
   "name_zh": "图书馆",
   "name_ru": "Библиотека",
   "note": "Required POI, not present in OSM by name. Needs a verified coordinate."
  },
  {
   "name_zh": "立德路",
   "name_ru": "Улица Лидэ",
   "note": "Western boundary named in the handoff, not found in OSM."
  }
 ],
 "features": [
  {
   "type": "Feature",
   "geometry": {
    "type": "LineString",
    "coordinates": [
     [
      110.0291591,
      18.4252267
     ],
     [
      110.0291598,
      18.4251252
     ],
     [
      110.0291491,
      18.425054
     ],
     [
      110.0290954,
      18.4249522
     ],
     [
      110.0289452,
      18.4247333
     ],
     [
      110.0286072,
      18.4242804
     ],
     [
      110.0282425,
      18.4236951
     ],
     [
      110.0278457,
      18.4228694
     ],
     [
      110.0275987,
      18.4221123
     ],
     [
      110.0274646,
      18.421588
     ],
     [
      110.0273305,
      18.4207839
     ],
     [
      110.0272715,
      18.4203615
     ],
     [
      110.0272692,
      18.4201672
     ],
     [
      110.0272661,
      18.4199797
     ],
     [
      110.027293,
      18.4195522
     ],
     [
      110.0274754,
      18.4187532
     ],
     [
      110.0278143,
      18.4173837
     ],
     [
      110.0280762,
      18.4163254
     ],
     [
      110.0282425,
      18.415511
     ],
     [
      110.0283283,
      18.4147781
     ],
     [
      110.0283498,
      18.4142844
     ],
     [
      110.0283149,
      18.4135095
     ],
     [
      110.0280346,
      18.4122638
     ],
     [
      110.0279448,
      18.4116984
     ],
     [
      110.0278951,
      18.4113857
     ],
     [
      110.0278509,
      18.4109582
     ],
     [
      110.0278442,
      18.410495
     ],
     [
      110.0278804,
      18.4100547
     ],
     [
      110.0279474,
      18.4096374
     ],
     [
      110.0280654,
      18.4092073
     ],
     [
      110.0282773,
      18.4086067
     ],
     [
      110.0283632,
      18.4082529
     ],
     [
      110.0283847,
      18.4080239
     ],
     [
      110.0283846,
      18.4076625
     ],
     [
      110.0283363,
      18.4072579
     ],
     [
      110.028331,
      18.4069576
     ],
     [
      110.028339,
      18.4067743
     ],
     [
      110.0283792,
      18.4065784
     ],
     [
      110.0284302,
      18.4063926
     ],
     [
      110.0285053,
      18.4061813
     ],
     [
      110.028618,
      18.405965
     ],
     [
      110.0288728,
      18.4056469
     ],
     [
      110.0292027,
      18.4052804
     ],
     [
      110.0293261,
      18.4051404
     ],
     [
      110.0294521,
      18.4049521
     ],
     [
      110.0295836,
      18.4046849
     ],
     [
      110.0296855,
      18.4043998
     ],
     [
      110.0297499,
      18.4041123
     ],
     [
      110.0297847,
      18.4038552
     ],
     [
      110.0297874,
      18.4035345
     ],
     [
      110.0297391,
      18.403219
     ],
     [
      110.029656,
      18.4028092
     ],
     [
      110.0296319,
      18.4025013
     ],
     [
      110.0296533,
      18.4023129
     ],
     [
      110.0297311,
      18.4020508
     ],
     [
      110.0298947,
      18.4017326
     ],
     [
      110.0301522,
      18.4012975
     ],
     [
      110.0302246,
      18.4011422
     ],
     [
      110.0302944,
      18.400903
     ],
     [
      110.0303265,
      18.4006714
     ],
     [
      110.0303319,
      18.4002946
     ],
     [
      110.0302818,
      18.3997969
     ],
     [
      110.0302729,
      18.3995872
     ],
     [
      110.0302944,
      18.399213
     ],
     [
      110.0302809,
      18.3991138
     ],
     [
      110.0301871,
      18.3989738
     ]
    ]
   },
   "properties": {
    "id": "osm-way-737370467",
    "name_zh": "尖岭大道",
    "name_ru": "Проспект Цзяньлин",
    "category": "road",
    "source": "openstreetmap",
    "osm_id": "way/737370467",
    "crs_note": "WGS-84, as published by OSM. NOT GCJ-02.",
    "verified": false
   }
  },
  {
   "type": "Feature",
   "geometry": {
    "type": "LineString",
    "coordinates": [
     [
      110.0300284,
      18.3988571
     ],
     [
      110.0298545,
      18.3988109
     ],
     [
      110.0296184,
      18.3988211
     ],
     [
      110.0278911,
      18.3991596
     ],
     [
      110.0276363,
      18.3991825
     ],
     [
      110.0274298,
      18.3991774
     ],
     [
      110.027234,
      18.399157
     ],
     [
      110.0269416,
      18.3990858
     ],
     [
      110.0266975,
      18.3989814
     ],
     [
      110.0264937,
      18.3988592
     ],
     [
      110.0262952,
      18.3987091
     ],
     [
      110.0258579,
      18.3983146
     ],
     [
      110.0253135,
      18.3978081
     ],
     [
      110.0250211,
      18.3975918
     ],
     [
      110.0248066,
      18.3974645
     ],
     [
      110.0245517,
      18.3973576
     ],
     [
      110.0243372,
      18.3972838
     ],
     [
      110.0241119,
      18.3972355
     ],
     [
      110.0238919,
      18.3972049
     ],
     [
      110.0236264,
      18.39721
     ],
     [
      110.0231058,
      18.3972504
     ],
     [
      110.022642,
      18.3972863
     ],
     [
      110.0221807,
      18.3973296
     ],
     [
      110.021909,
      18.3973616
     ],
     [
      110.0217462,
      18.3973704
     ],
     [
      110.0212124,
      18.3974161
     ],
     [
      110.0208771,
      18.3974136
     ],
     [
      110.0206196,
      18.3973831
     ],
     [
      110.0203862,
      18.3973321
     ],
     [
      110.0201127,
      18.3972482
     ],
     [
      110.0196916,
      18.3970726
     ],
     [
      110.019418,
      18.3969097
     ],
     [
      110.019198,
      18.3967392
     ],
     [
      110.018734,
      18.3963039
     ],
     [
      110.0185194,
      18.3961105
     ],
     [
      110.0182533,
      18.3959316
     ],
     [
      110.0179857,
      18.3957517
     ],
     [
      110.0177818,
      18.3955989
     ],
     [
      110.0175646,
      18.3953801
     ],
     [
      110.01746,
      18.3952528
     ],
     [
      110.0173272,
      18.3950199
     ],
     [
      110.0172812,
      18.3949272
     ],
     [
      110.0171998,
      18.3947056
     ],
     [
      110.0170216,
      18.3940214
     ],
     [
      110.0169477,
      18.3937562
     ],
     [
      110.0168592,
      18.3935348
     ],
     [
      110.0167546,
      18.3933923
     ],
     [
      110.0166473,
      18.3932828
     ],
     [
      110.0164998,
      18.393181
     ],
     [
      110.0163166,
      18.3930974
     ],
     [
      110.0157997,
      18.392896
     ],
     [
      110.0155744,
      18.3927789
     ],
     [
      110.0153433,
      18.3926321
     ],
     [
      110.0138624,
      18.3914372
     ],
     [
      110.0135064,
      18.39115
     ],
     [
      110.0132949,
      18.3910017
     ],
     [
      110.0130933,
      18.3909133
     ],
     [
      110.0128385,
      18.3908522
     ],
     [
      110.0126311,
      18.3908362
     ],
     [
      110.0124577,
      18.3908395
     ],
     [
      110.0122431,
      18.3908853
     ],
     [
      110.0118652,
      18.3909624
     ],
     [
      110.0115296,
      18.3910176
     ],
     [
      110.0110761,
      18.3910454
     ],
     [
      110.0108122,
      18.3910403
     ],
     [
      110.0106548,
      18.3910372
     ],
     [
      110.0103119,
      18.3909998
     ],
     [
      110.0099739,
      18.3909311
     ],
     [
      110.0096842,
      18.3908522
     ],
     [
      110.0091746,
      18.3906995
     ],
     [
      110.0087321,
      18.3905875
     ],
     [
      110.0082788,
      18.3905086
     ],
     [
      110.0079221,
      18.3904704
     ],
     [
      110.0075357,
      18.390458
     ],
     [
      110.0071576,
      18.3904577
     ],
     [
      110.0068152,
      18.3904841
     ],
     [
      110.0067285,
      18.3904908
     ],
     [
      110.0064737,
      18.3905289
     ],
     [
      110.0060204,
      18.3906307
     ],
     [
      110.0057271,
      18.3906999
     ],
     [
      110.0052212,
      18.3909001
     ],
     [
      110.0048804,
      18.3910507
     ],
     [
      110.0045478,
      18.3912314
     ],
     [
      110.0041428,
      18.3914987
     ],
     [
      110.0032571,
      18.3922143
     ],
     [
      110.002579,
      18.3927815
     ],
     [
      110.0022304,
      18.3930792
     ],
     [
      110.0020846,
      18.393189
     ],
     [
      110.0018924,
      18.3933337
     ],
     [
      110.0015756,
      18.3935368
     ],
     [
      110.0011817,
      18.3937435
     ]
    ]
   },
   "properties": {
    "id": "osm-way-737370468",
    "name_zh": "南湾路",
    "name_ru": "Улица Наньвань",
    "category": "road",
    "source": "openstreetmap",
    "osm_id": "way/737370468",
    "crs_note": "WGS-84, as published by OSM. NOT GCJ-02.",
    "verified": false
   }
  },
  {
   "type": "Feature",
   "geometry": {
    "type": "LineString",
    "coordinates": [
     [
      110.0011817,
      18.3937435
     ],
     [
      110.0015491,
      18.3934763
     ],
     [
      110.0018281,
      18.3932421
     ],
     [
      110.0019746,
      18.3931066
     ],
     [
      110.0024611,
      18.3926567
     ],
     [
      110.0031382,
      18.3920279
     ],
     [
      110.0037163,
      18.3915216
     ],
     [
      110.0039658,
      18.3913447
     ],
     [
      110.004183,
      18.3911907
     ],
     [
      110.00458,
      18.3909616
     ],
     [
      110.0049287,
      18.3907987
     ],
     [
      110.0052935,
      18.3906511
     ],
     [
      110.0056084,
      18.3905482
     ],
     [
      110.0059855,
      18.3904526
     ],
     [
      110.0064468,
      18.3903559
     ],
     [
      110.0067258,
      18.3903151
     ],
     [
      110.0067569,
      18.390314
     ],
     [
      110.0071683,
      18.3902999
     ],
     [
      110.0075304,
      18.39031
     ],
     [
      110.0079301,
      18.3903228
     ],
     [
      110.0083002,
      18.3903762
     ],
     [
      110.0087482,
      18.3904806
     ],
     [
      110.0091961,
      18.3906002
     ],
     [
      110.0097084,
      18.3907376
     ],
     [
      110.0100008,
      18.3908064
     ],
     [
      110.0103199,
      18.3908573
     ],
     [
      110.0106606,
      18.3908674
     ],
     [
      110.010807,
      18.3908627
     ],
     [
      110.0110602,
      18.3908547
     ],
     [
      110.0114921,
      18.3907911
     ],
     [
      110.0118247,
      18.3907198
     ],
     [
      110.012286,
      18.3906155
     ],
     [
      110.012514,
      18.3906053
     ],
     [
      110.0128198,
      18.3906358
     ],
     [
      110.0131041,
      18.3907249
     ],
     [
      110.0133576,
      18.3908653
     ],
     [
      110.0135976,
      18.3910634
     ],
     [
      110.0139423,
      18.3913403
     ],
     [
      110.0154135,
      18.3925218
     ],
     [
      110.0156227,
      18.3926644
     ],
     [
      110.0158346,
      18.3927764
     ],
     [
      110.0163469,
      18.3929622
     ],
     [
      110.0165722,
      18.3930385
     ],
     [
      110.0167304,
      18.3931174
     ],
     [
      110.016886,
      18.393237
     ],
     [
      110.0169986,
      18.393377
     ],
     [
      110.0170737,
      18.3935195
     ],
     [
      110.0171435,
      18.3937257
     ],
     [
      110.0172347,
      18.3939955
     ],
     [
      110.0174305,
      18.3946242
     ],
     [
      110.0174868,
      18.3947565
     ],
     [
      110.0175632,
      18.3948987
     ],
     [
      110.017688,
      18.3950619
     ],
     [
      110.0178757,
      18.3952935
     ],
     [
      110.0180715,
      18.3955022
     ],
     [
      110.0182164,
      18.3956142
     ],
     [
      110.0183934,
      18.3957466
     ],
     [
      110.0186643,
      18.3959222
     ],
     [
      110.0188145,
      18.3960418
     ],
     [
      110.0189862,
      18.3962021
     ],
     [
      110.0193992,
      18.3965941
     ],
     [
      110.0195789,
      18.3967341
     ],
     [
      110.0197667,
      18.3968512
     ],
     [
      110.0199303,
      18.3969479
     ],
     [
      110.0201583,
      18.3970497
     ],
     [
      110.0203595,
      18.3971235
     ],
     [
      110.0205767,
      18.3971871
     ],
     [
      110.020853,
      18.3972456
     ],
     [
      110.0210568,
      18.3972635
     ],
     [
      110.0212204,
      18.3972736
     ],
     [
      110.0216308,
      18.3972558
     ],
     [
      110.0219732,
      18.3972269
     ],
     [
      110.0226554,
      18.3971693
     ],
     [
      110.0236317,
      18.3970726
     ],
     [
      110.0238919,
      18.3970751
     ],
     [
      110.0241333,
      18.3971031
     ],
     [
      110.024372,
      18.3971489
     ],
     [
      110.0245947,
      18.3972227
     ],
     [
      110.02482,
      18.3973195
     ],
     [
      110.0250238,
      18.397434
     ],
     [
      110.0252411,
      18.397574
     ],
     [
      110.0254476,
      18.3977419
     ],
     [
      110.0264052,
      18.3986455
     ],
     [
      110.0265607,
      18.3987702
     ],
     [
      110.0267404,
      18.3988796
     ],
     [
      110.0269282,
      18.3989611
     ],
     [
      110.0271293,
      18.3990221
     ],
     [
      110.0273386,
      18.3990603
     ],
     [
      110.0275558,
      18.399073
     ],
     [
      110.0277597,
      18.3990629
     ],
     [
      110.027985,
      18.3990349
     ],
     [
      110.0296158,
      18.3987167
     ],
     [
      110.0298598,
      18.3986862
     ],
     [
      110.03003,
      18.3986213
     ]
    ]
   },
   "properties": {
    "id": "osm-way-1029453237",
    "name_zh": "南湾路",
    "name_ru": "Улица Наньвань",
    "category": "road",
    "source": "openstreetmap",
    "osm_id": "way/1029453237",
    "crs_note": "WGS-84, as published by OSM. NOT GCJ-02.",
    "verified": false
   }
  },
  {
   "type": "Feature",
   "geometry": {
    "type": "LineString",
    "coordinates": [
     [
      110.0020846,
      18.393189
     ],
     [
      110.0025625,
      18.3933789
     ],
     [
      110.00312,
      18.3935958
     ],
     [
      110.0039062,
      18.393896
     ],
     [
      110.0056754,
      18.3946751
     ],
     [
      110.0064552,
      18.3950543
     ],
     [
      110.0072642,
      18.3954663
     ],
     [
      110.008076,
      18.395933
     ],
     [
      110.0081023,
      18.3959485
     ],
     [
      110.0093042,
      18.3966581
     ],
     [
      110.0098386,
      18.3970167
     ],
     [
      110.0102243,
      18.3972784
     ],
     [
      110.012472,
      18.3989168
     ],
     [
      110.0130752,
      18.3994192
     ],
     [
      110.0140143,
      18.4002572
     ],
     [
      110.0143684,
      18.4005954
     ],
     [
      110.0153444,
      18.401596
     ],
     [
      110.0163043,
      18.402623
     ],
     [
      110.0175942,
      18.4041896
     ],
     [
      110.0194921,
      18.4067622
     ],
     [
      110.0201576,
      18.4079667
     ],
     [
      110.0204606,
      18.4084611
     ],
     [
      110.0208097,
      18.4093131
     ],
     [
      110.0210132,
      18.4099754
     ],
     [
      110.021195,
      18.4105436
     ],
     [
      110.0214178,
      18.4110728
     ],
     [
      110.0218785,
      18.4120899
     ],
     [
      110.0222843,
      18.4129298
     ],
     [
      110.0228785,
      18.414266
     ],
     [
      110.0231154,
      18.4149593
     ],
     [
      110.0239179,
      18.4171368
     ],
     [
      110.0249146,
      18.4203582
     ],
     [
      110.0272692,
      18.4201672
     ],
     [
      110.0274631,
      18.420164
     ]
    ]
   },
   "properties": {
    "id": "osm-way-1082221460",
    "name_zh": "博学大道",
    "name_ru": "Проспект Босюэ",
    "category": "road",
    "source": "openstreetmap",
    "osm_id": "way/1082221460",
    "crs_note": "WGS-84, as published by OSM. NOT GCJ-02.",
    "verified": false
   }
  },
  {
   "type": "Feature",
   "geometry": {
    "type": "LineString",
    "coordinates": [
     [
      110.0167004,
      18.40015
     ],
     [
      110.0154101,
      18.3988639
     ],
     [
      110.0149658,
      18.3984299
     ],
     [
      110.0137164,
      18.3973802
     ],
     [
      110.0131247,
      18.3969275
     ],
     [
      110.0109788,
      18.3954146
     ],
     [
      110.0096867,
      18.3946066
     ],
     [
      110.0090536,
      18.3942084
     ],
     [
      110.0065834,
      18.3929277
     ],
     [
      110.0064495,
      18.3928692
     ],
     [
      110.0059304,
      18.3926218
     ],
     [
      110.0052178,
      18.3922826
     ],
     [
      110.0047722,
      18.3920108
     ],
     [
      110.004493,
      18.3918254
     ],
     [
      110.0043014,
      18.3916677
     ],
     [
      110.0041428,
      18.3914987
     ],
     [
      110.0040543,
      18.3914217
     ]
    ]
   },
   "properties": {
    "id": "osm-way-1082221462",
    "name_zh": "思源大道",
    "name_ru": "Проспект Сыюань",
    "category": "road",
    "source": "openstreetmap",
    "osm_id": "way/1082221462",
    "crs_note": "WGS-84, as published by OSM. NOT GCJ-02.",
    "verified": false
   }
  },
  {
   "type": "Feature",
   "geometry": {
    "type": "LineString",
    "coordinates": [
     [
      110.0056754,
      18.3946751
     ],
     [
      110.0065834,
      18.3929277
     ],
     [
      110.0074216,
      18.3912616
     ]
    ]
   },
   "properties": {
    "id": "osm-way-1082221463",
    "name_zh": "至善路",
    "name_ru": "Улица Чжишань",
    "category": "road",
    "source": "openstreetmap",
    "osm_id": "way/1082221463",
    "crs_note": "WGS-84, as published by OSM. NOT GCJ-02.",
    "verified": false
   }
  },
  {
   "type": "Feature",
   "geometry": {
    "type": "LineString",
    "coordinates": [
     [
      110.0068152,
      18.3904841
     ],
     [
      110.007014,
      18.390799
     ],
     [
      110.007205,
      18.3910729
     ],
     [
      110.0074216,
      18.3912616
     ],
     [
      110.0079179,
      18.3915146
     ],
     [
      110.0090246,
      18.3919743
     ],
     [
      110.0095286,
      18.3922272
     ],
     [
      110.0100169,
      18.3925213
     ],
     [
      110.0115554,
      18.3934647
     ],
     [
      110.012138,
      18.393816
     ],
     [
      110.0143193,
      18.3953389
     ],
     [
      110.0149582,
      18.3958624
     ],
     [
      110.0168005,
      18.3974015
     ],
     [
      110.0172747,
      18.3978037
     ],
     [
      110.019016,
      18.3994157
     ],
     [
      110.0193599,
      18.3998336
     ],
     [
      110.020913,
      18.4016321
     ],
     [
      110.0209819,
      18.4017259
     ],
     [
      110.0228667,
      18.4042918
     ],
     [
      110.0229827,
      18.4044774
     ],
     [
      110.0238921,
      18.4059325
     ],
     [
      110.0242408,
      18.4066235
     ],
     [
      110.0243964,
      18.4069317
     ],
     [
      110.0247302,
      18.407593
     ],
     [
      110.0260116,
      18.4100701
     ]
    ]
   },
   "properties": {
    "id": "osm-way-1082221464",
    "name_zh": "明德大道",
    "name_ru": "Проспект Миндэ",
    "category": "road",
    "source": "openstreetmap",
    "osm_id": "way/1082221464",
    "crs_note": "WGS-84, as published by OSM. NOT GCJ-02.",
    "verified": false
   }
  },
  {
   "type": "Feature",
   "geometry": {
    "type": "Polygon",
    "coordinates": [
     [
      [
       110.0195052,
       18.406632
      ],
      [
       110.0181105,
       18.4045996
      ],
      [
       110.0158968,
       18.4060796
      ],
      [
       110.012824,
       18.4034741
      ],
      [
       110.0117022,
       18.3999049
      ],
      [
       110.0151244,
       18.3957085
      ],
      [
       110.0164792,
       18.3940471
      ],
      [
       110.0167748,
       18.3940797
      ],
      [
       110.0171671,
       18.3952319
      ],
      [
       110.0174523,
       18.3956263
      ],
      [
       110.017904,
       18.3959388
      ],
      [
       110.0184377,
       18.3963545
      ],
      [
       110.0188483,
       18.3966765
      ],
      [
       110.0192778,
       18.3970287
      ],
      [
       110.0195901,
       18.3972434
      ],
      [
       110.0200772,
       18.3974234
      ],
      [
       110.0205706,
       18.3975486
      ],
      [
       110.0209961,
       18.3975687
      ],
      [
       110.0214141,
       18.3976691
      ],
      [
       110.0190881,
       18.3998434
      ],
      [
       110.0227987,
       18.4045532
      ],
      [
       110.0195052,
       18.406632
      ]
     ]
    ]
   },
   "properties": {
    "id": "osm-way-1125998151",
    "name_zh": "黎安国际教育创新试验区",
    "name_ru": "Кампус Лиань — экспериментальная зона",
    "category": "boundary",
    "source": "openstreetmap",
    "osm_id": "way/1125998151",
    "crs_note": "WGS-84, as published by OSM. NOT GCJ-02.",
    "verified": false
   }
  },
  {
   "type": "Feature",
   "geometry": {
    "type": "Polygon",
    "coordinates": [
     [
      [
       110.0122504,
       18.4007455
      ],
      [
       110.0128619,
       18.4022802
      ],
      [
       110.0131221,
       18.4023769
      ],
      [
       110.0133877,
       18.40241
      ],
      [
       110.0135915,
       18.4023896
      ],
      [
       110.0137739,
       18.4023234
      ],
      [
       110.0139322,
       18.4022471
      ],
      [
       110.0140555,
       18.4021224
      ],
      [
       110.0141494,
       18.4019391
      ],
      [
       110.0141789,
       18.401822
      ],
      [
       110.0143425,
       18.4008193
      ],
      [
       110.0133635,
       18.3999667
      ],
      [
       110.0131329,
       18.4001347
      ],
      [
       110.0129934,
       18.4001983
      ],
      [
       110.0127493,
       18.4002517
      ],
      [
       110.0125535,
       18.4002925
      ],
      [
       110.0123845,
       18.4003077
      ],
      [
       110.0122504,
       18.4007455
      ]
     ]
    ]
   },
   "properties": {
    "id": "osm-way-1125998153",
    "name_zh": "体育场",
    "name_ru": "Стадион",
    "category": "sport",
    "source": "openstreetmap",
    "osm_id": "way/1125998153",
    "crs_note": "WGS-84, as published by OSM. NOT GCJ-02.",
    "verified": false
   }
  },
  {
   "type": "Feature",
   "geometry": {
    "type": "Polygon",
    "coordinates": [
     [
      [
       110.0173155,
       18.3992359
      ],
      [
       110.0177056,
       18.3996702
      ],
      [
       110.0168792,
       18.4003388
      ],
      [
       110.0165549,
       18.4006011
      ],
      [
       110.0164616,
       18.4004972
      ],
      [
       110.0165083,
       18.4004595
      ],
      [
       110.0164603,
       18.400406
      ],
      [
       110.0165449,
       18.4003376
      ],
      [
       110.0164388,
       18.4002195
      ],
      [
       110.0163699,
       18.4002753
      ],
      [
       110.0164402,
       18.4003536
      ],
      [
       110.0161218,
       18.4006109
      ],
      [
       110.0159346,
       18.4004024
      ],
      [
       110.0164175,
       18.4000122
      ],
      [
       110.0166082,
       18.4002246
      ],
      [
       110.0167004,
       18.40015
      ],
      [
       110.0169874,
       18.399918
      ],
      [
       110.0167706,
       18.3996766
      ],
      [
       110.0173155,
       18.3992359
      ]
     ]
    ]
   },
   "properties": {
    "id": "osm-way-1125998165",
    "name_zh": "公共教学楼",
    "name_ru": "Общий учебный корпус",
    "category": "academic",
    "source": "openstreetmap",
    "osm_id": "way/1125998165",
    "crs_note": "WGS-84, as published by OSM. NOT GCJ-02.",
    "verified": false
   }
  },
  {
   "type": "Feature",
   "geometry": {
    "type": "Polygon",
    "coordinates": [
     [
      [
       110.0180522,
       18.4013206
      ],
      [
       110.018081,
       18.4013491
      ],
      [
       110.0179679,
       18.4014507
      ],
      [
       110.0178587,
       18.4015489
      ],
      [
       110.0178412,
       18.4015288
      ],
      [
       110.0178081,
       18.401559
      ],
      [
       110.0178003,
       18.4015514
      ],
      [
       110.0176997,
       18.4016438
      ],
      [
       110.0177097,
       18.4016536
      ],
      [
       110.0175951,
       18.4017598
      ],
      [
       110.0177151,
       18.4018756
      ],
      [
       110.0178271,
       18.4017687
      ],
      [
       110.0179364,
       18.4018757
      ],
      [
       110.0175717,
       18.4022001
      ],
      [
       110.017651,
       18.4022772
      ],
      [
       110.0176414,
       18.4022865
      ],
      [
       110.0177412,
       18.4023843
      ],
      [
       110.0182104,
       18.4019531
      ],
      [
       110.0180006,
       18.401712
      ],
      [
       110.0181222,
       18.4016025
      ],
      [
       110.0182343,
       18.4015016
      ],
      [
       110.018326,
       18.4014221
      ],
      [
       110.0185661,
       18.4016588
      ],
      [
       110.0187927,
       18.4014679
      ],
      [
       110.0187613,
       18.401438
      ],
      [
       110.0190767,
       18.4011509
      ],
      [
       110.018675,
       18.4007532
      ],
      [
       110.0180522,
       18.4013206
      ]
     ]
    ]
   },
   "properties": {
    "id": "osm-way-1125998166",
    "name_zh": "公共实验楼",
    "name_ru": "Общий лабораторный корпус",
    "category": "academic",
    "source": "openstreetmap",
    "osm_id": "way/1125998166",
    "crs_note": "WGS-84, as published by OSM. NOT GCJ-02.",
    "verified": false
   }
  },
  {
   "type": "Feature",
   "geometry": {
    "type": "Polygon",
    "coordinates": [
     [
      [
       110.019665,
       18.397423
      ],
      [
       110.0198344,
       18.3974668
      ],
      [
       110.0199947,
       18.3975282
      ],
      [
       110.0201888,
       18.3977153
      ],
      [
       110.0199392,
       18.3979233
      ],
      [
       110.0199056,
       18.3978881
      ],
      [
       110.0198879,
       18.3979066
      ],
      [
       110.0196755,
       18.3977218
      ],
      [
       110.0196897,
       18.3977051
      ],
      [
       110.0195322,
       18.3975657
      ],
      [
       110.019665,
       18.397423
      ]
     ]
    ]
   },
   "properties": {
    "id": "osm-way-1125998179",
    "name_zh": "学生食堂",
    "name_ru": "Студенческая столовая",
    "category": "food",
    "source": "openstreetmap",
    "osm_id": "way/1125998179",
    "crs_note": "WGS-84, as published by OSM. NOT GCJ-02.",
    "verified": false
   }
  },
  {
   "type": "Feature",
   "geometry": {
    "type": "Polygon",
    "coordinates": [
     [
      [
       110.019783,
       18.4017858
      ],
      [
       110.0197365,
       18.4018199
      ],
      [
       110.0200008,
       18.402145
      ],
      [
       110.020127,
       18.4020527
      ],
      [
       110.0205303,
       18.4017575
      ],
      [
       110.0204327,
       18.4016375
      ],
      [
       110.0203934,
       18.4016662
      ],
      [
       110.0202199,
       18.4016472
      ],
      [
       110.0201856,
       18.4016051
      ],
      [
       110.0198539,
       18.4018478
      ],
      [
       110.019841,
       18.4018572
      ],
      [
       110.019783,
       18.4017858
      ]
     ]
    ]
   },
   "properties": {
    "id": "osm-way-1223487854",
    "name_zh": "1号食堂",
    "name_ru": "Столовая №1",
    "category": "food",
    "source": "openstreetmap",
    "osm_id": "way/1223487854",
    "crs_note": "WGS-84, as published by OSM. NOT GCJ-02.",
    "verified": false
   }
  },
  {
   "type": "Feature",
   "geometry": {
    "type": "Polygon",
    "coordinates": [
     [
      [
       110.0171258,
       18.4020792
      ],
      [
       110.0165568,
       18.4025543
      ],
      [
       110.0165391,
       18.4026575
      ],
      [
       110.0175304,
       18.40391
      ],
      [
       110.0177049,
       18.4039292
      ],
      [
       110.0183219,
       18.4034781
      ],
      [
       110.0171258,
       18.4020792
      ]
     ]
    ]
   },
   "properties": {
    "id": "osm-way-1223487861",
    "name_zh": "中央民族大学海南国际学院",
    "name_ru": "Центральный университет национальностей — Хайнаньский институт",
    "category": "academic",
    "source": "openstreetmap",
    "osm_id": "way/1223487861",
    "crs_note": "WGS-84, as published by OSM. NOT GCJ-02.",
    "verified": false
   }
  },
  {
   "type": "Feature",
   "geometry": {
    "type": "Polygon",
    "coordinates": [
     [
      [
       110.0178238,
       18.4040996
      ],
      [
       110.0184686,
       18.404913
      ],
      [
       110.0192601,
       18.4043395
      ],
      [
       110.0197861,
       18.4050114
      ],
      [
       110.0203424,
       18.404685
      ],
      [
       110.019298,
       18.4031854
      ],
      [
       110.0191413,
       18.4031542
      ],
      [
       110.0178238,
       18.4040996
      ]
     ]
    ]
   },
   "properties": {
    "id": "osm-way-1223487862",
    "name_zh": "北京体育大学海南国际学院",
    "name_ru": "Пекинский спортивный университет — Хайнаньский институт",
    "category": "academic",
    "source": "openstreetmap",
    "osm_id": "way/1223487862",
    "crs_note": "WGS-84, as published by OSM. NOT GCJ-02.",
    "verified": false
   }
  },
  {
   "type": "Feature",
   "geometry": {
    "type": "Polygon",
    "coordinates": [
     [
      [
       110.0151907,
       18.3988632
      ],
      [
       110.0139948,
       18.4000234
      ],
      [
       110.0128679,
       18.3990123
      ],
      [
       110.0128143,
       18.3988632
      ],
      [
       110.0133317,
       18.3982304
      ],
      [
       110.0140676,
       18.3988923
      ],
      [
       110.0145774,
       18.3983213
      ],
      [
       110.0151907,
       18.3988632
      ]
     ]
    ]
   },
   "properties": {
    "id": "osm-way-1223487863",
    "name_zh": "中国传媒大学海南国际学院",
    "name_ru": "Китайский университет коммуникаций — Хайнаньский институт",
    "category": "academic",
    "source": "openstreetmap",
    "osm_id": "way/1223487863",
    "crs_note": "WGS-84, as published by OSM. NOT GCJ-02.",
    "verified": false
   }
  },
  {
   "type": "Feature",
   "geometry": {
    "type": "Polygon",
    "coordinates": [
     [
      [
       110.0144203,
       18.3960227
      ],
      [
       110.014244,
       18.3962154
      ],
      [
       110.0141021,
       18.39627
      ],
      [
       110.0139603,
       18.3962736
      ],
      [
       110.013853,
       18.3962009
      ],
      [
       110.0138262,
       18.3960591
      ],
      [
       110.0138837,
       18.3959681
      ],
      [
       110.0139833,
       18.3958336
      ],
      [
       110.014152,
       18.3957135
      ],
      [
       110.0142976,
       18.3956917
      ],
      [
       110.0144318,
       18.3957535
      ],
      [
       110.0144548,
       18.3958663
      ],
      [
       110.0144203,
       18.3960227
      ]
     ]
    ]
   },
   "properties": {
    "id": "osm-way-1223487864",
    "name_zh": "会堂",
    "name_ru": "Актовый зал",
    "category": "civic",
    "source": "openstreetmap",
    "osm_id": "way/1223487864",
    "crs_note": "WGS-84, as published by OSM. NOT GCJ-02.",
    "verified": false
   }
  },
  {
   "type": "Feature",
   "geometry": {
    "type": "Polygon",
    "coordinates": [
     [
      [
       110.0288352,
       18.4022798
      ],
      [
       110.0295615,
       18.4018456
      ],
      [
       110.0297361,
       18.4016128
      ],
      [
       110.0298635,
       18.4013755
      ],
      [
       110.0300806,
       18.400865
      ],
      [
       110.0300901,
       18.3997635
      ],
      [
       110.0299532,
       18.3991904
      ],
      [
       110.029788,
       18.3991321
      ],
      [
       110.0288395,
       18.3992262
      ],
      [
       110.0281742,
       18.3993381
      ],
      [
       110.027589,
       18.3994769
      ],
      [
       110.0273248,
       18.3996381
      ],
      [
       110.0271535,
       18.3997857
      ],
      [
       110.0288352,
       18.4022798
      ]
     ]
    ]
   },
   "properties": {
    "id": "osm-way-1223487868",
    "name_zh": "华中师范大学黎安滨海学校",
    "name_ru": "Школа при Центрально-китайском педагогическом университете",
    "category": "school",
    "source": "openstreetmap",
    "osm_id": "way/1223487868",
    "crs_note": "WGS-84, as published by OSM. NOT GCJ-02.",
    "verified": false
   }
  },
  {
   "type": "Feature",
   "geometry": {
    "type": "LineString",
    "coordinates": [
     [
      110.0246166,
      18.4107945
     ],
     [
      110.0238303,
      18.410013
     ],
     [
      110.0231647,
      18.4092413
     ],
     [
      110.022869,
      18.4087151
     ],
     [
      110.0225855,
      18.4081538
     ],
     [
      110.0222774,
      18.4074755
     ],
     [
      110.0216612,
      18.4064699
     ],
     [
      110.0210203,
      18.4054525
     ],
     [
      110.0192382,
      18.4029939
     ],
     [
      110.0191471,
      18.4028682
     ],
     [
      110.0181981,
      18.4016871
     ],
     [
      110.0181222,
      18.4016025
     ]
    ]
   },
   "properties": {
    "id": "osm-way-1223487869",
    "name_zh": "思源大道",
    "name_ru": "Проспект Сыюань",
    "category": "road",
    "source": "openstreetmap",
    "osm_id": "way/1223487869",
    "crs_note": "WGS-84, as published by OSM. NOT GCJ-02.",
    "verified": false
   }
  },
  {
   "type": "Feature",
   "geometry": {
    "type": "LineString",
    "coordinates": [
     [
      110.0181222,
      18.4016025
     ],
     [
      110.0179679,
      18.4014507
     ]
    ]
   },
   "properties": {
    "id": "osm-way-1223487870",
    "name_zh": "思源大道",
    "name_ru": "Проспект Сыюань",
    "category": "road",
    "source": "openstreetmap",
    "osm_id": "way/1223487870",
    "crs_note": "WGS-84, as published by OSM. NOT GCJ-02.",
    "verified": false
   }
  },
  {
   "type": "Feature",
   "geometry": {
    "type": "LineString",
    "coordinates": [
     [
      110.0179679,
      18.4014507
     ],
     [
      110.0178178,
      18.40129
     ],
     [
      110.0173597,
      18.4007993
     ],
     [
      110.0168792,
      18.4003388
     ]
    ]
   },
   "properties": {
    "id": "osm-way-1223487871",
    "name_zh": "思源大道",
    "name_ru": "Проспект Сыюань",
    "category": "road",
    "source": "openstreetmap",
    "osm_id": "way/1223487871",
    "crs_note": "WGS-84, as published by OSM. NOT GCJ-02.",
    "verified": false
   }
  },
  {
   "type": "Feature",
   "geometry": {
    "type": "LineString",
    "coordinates": [
     [
      110.0168792,
      18.4003388
     ],
     [
      110.0167004,
      18.40015
     ]
    ]
   },
   "properties": {
    "id": "osm-way-1223487872",
    "name_zh": "思源大道",
    "name_ru": "Проспект Сыюань",
    "category": "road",
    "source": "openstreetmap",
    "osm_id": "way/1223487872",
    "crs_note": "WGS-84, as published by OSM. NOT GCJ-02.",
    "verified": false
   }
  }
 ]
}